{
  "type": "FeatureCollection",
  "features": [
    {
      "type": "Feature",
      "properties": {
        "norad_id": 66527,
        "name": "STARLINK-35935",
        "group": "last-30-days",
        "lat": 35.58629884925714,
        "lon": -117.24040868949524,
        "alt_km": 339.5970192684217,
        "timestamp": "2025-12-02T19:35:49.343616+00:00",
        "meta_object_name": "STARLINK-35935",
        "meta_object_id": "2025-265M",
        "meta_epoch": "2025-12-02T12:00:05.998752",
        "meta_mean_motion": 15.75036495,
        "meta_eccentricity": 0.0001431,
        "meta_inclination": 42.999,
        "meta_ra_of_asc_node": 114.8494,
        "meta_arg_of_pericenter": 262.0243,
        "meta_mean_anomaly": 222.6892,
        "meta_ephemeris_type": 0,
        "meta_classification_type": "U",
        "meta_norad_cat_id": 66527,
        "meta_element_set_no": 999,
        "meta_rev_at_epoch": 334,
        "meta_bstar": 3.1916e-05,
        "meta_mean_motion_dot": 4.427e-05,
        "meta_mean_motion_ddot": 0,
        "tle_line1": "1 66527U 25265M   25336.50006943  .00004427  00000+0  31916-4 0  9992",
        "tle_line2": "2 66527  42.9990 114.8494 0001431 262.0243 222.6892 15.75036495  3346"
      },
      "geometry": {
        "type": "Point",
        "coordinates": [
          -117.24040868949524,
          35.58629884925714
        ]
      }
    },
    {
      "type": "Feature",
      "properties": {
        "norad_id": 66528,
        "name": "STARLINK-35928",
        "group": "last-30-days",
        "lat": 34.72787697823028,
        "lon": -115.13863083082275,
        "alt_km": 339.76391006466747,
        "timestamp": "2025-12-02T19:35:49.343626+00:00",
        "meta_object_name": "STARLINK-35928",
        "meta_object_id": "2025-265N",
        "meta_epoch": "2025-12-02T12:00:05.998752",
        "meta_mean_motion": 15.75041099,
        "meta_eccentricity": 0.0001453,
        "meta_inclination": 42.9993,
        "meta_ra_of_asc_node": 114.8446,
        "meta_arg_of_pericenter": 265.6052,
        "meta_mean_anomaly": 221.0274,
        "meta_ephemeris_type": 0,
        "meta_classification_type": "U",
        "meta_norad_cat_id": 66528,
        "meta_element_set_no": 999,
        "meta_rev_at_epoch": 334,
        "meta_bstar": -1.5521e-05,
        "meta_mean_motion_dot": -2.861e-05,
        "meta_mean_motion_ddot": 0,
        "tle_line1": "1 66528U 25265N   25336.50006943 -.00002861  00000+0 -15521-4 0  9999",
        "tle_line2": "2 66528  42.9993 114.8446 0001453 265.6052 221.0274 15.75041099  3341"
      },
      "geometry": {
        "type": "Point",
        "coordinates": [
          -115.13863083082275,
          34.72787697823028
        ]
      }
    },
    {
      "type": "Feature",
      "properties": {
        "norad_id": 66529,
        "name": "STARLINK-35933",
        "group": "last-30-days",
        "lat": 33.818818374948606,
        "lon": -113.04828827469036,
        "alt_km": 339.8105804691804,
        "timestamp": "2025-12-02T19:35:49.343638+00:00",
        "meta_object_name": "STARLINK-35933",
        "meta_object_id": "2025-265P",
        "meta_epoch": "2025-12-02T12:00:05.998752",
        "meta_mean_motion": 15.75068193,
        "meta_eccentricity": 0.0001646,
        "meta_inclination": 42.9994,
        "meta_ra_of_asc_node": 114.8392,
        "meta_arg_of_pericenter": 256.2001,
        "meta_mean_anomaly": 232.3623,
        "meta_ephemeris_type": 0,
        "meta_classification_type": "U",
        "meta_norad_cat_id": 66529,
        "meta_element_set_no": 999,
        "meta_rev_at_epoch": 334,
        "meta_bstar": -7.1246e-05,
        "meta_mean_motion_dot": -0.00011421,
        "meta_mean_motion_ddot": 0,
        "tle_line1": "1 66529U 25265P   25336.50006943 -.00011421  00000+0 -71246-4 0  9998",
        "tle_line2": "2 66529  42.9994 114.8392 0001646 256.2001 232.3623 15.75068193  3344"
      },
      "geometry": {
        "type": "Point",
        "coordinates": [
          -113.04828827469036,
          33.818818374948606
        ]
      }
    },
    {
      "type": "Feature",
      "properties": {
        "norad_id": 66530,
        "name": "STARLINK-35961",
        "group": "last-30-days",
        "lat": 32.90941147998767,
        "lon": -111.07465571591463,
        "alt_km": 340.0182212601967,
        "timestamp": "2025-12-02T19:35:49.343656+00:00",
        "meta_object_name": "STARLINK-35961",
        "meta_object_id": "2025-265Q",
        "meta_epoch": "2025-12-02T12:00:05.998752",
        "meta_mean_motion": 15.75074358,
        "meta_eccentricity": 0.0001461,
        "meta_inclination": 42.9993,
        "meta_ra_of_asc_node": 114.8349,
        "meta_arg_of_pericenter": 261.5059,
        "meta_mean_anomaly": 228.9542,
        "meta_ephemeris_type": 0,
        "meta_classification_type": "U",
        "meta_norad_cat_id": 66530,
        "meta_element_set_no": 999,
        "meta_rev_at_epoch": 334,
        "meta_bstar": -0.00049477,
        "meta_mean_motion_dot": -0.00075914,
        "meta_mean_motion_ddot": 0,
        "tle_line1": "1 66530U 25265Q   25336.50006943 -.00075914  00000+0 -49477-3 0  9997",
        "tle_line2": "2 66530  42.9993 114.8349 0001461 261.5059 228.9542 15.75074358  3345"
      },
      "geometry": {
        "type": "Point",
        "coordinates": [
          -111.07465571591463,
          32.90941147998767
        ]
      }
    },
    {
      "type": "Feature",
      "properties": {
        "norad_id": 66531,
        "name": "STARLINK-35960",
        "group": "last-30-days",
        "lat": 31.950571462345373,
        "lon": -109.10455286367592,
        "alt_km": 340.17943549688334,
        "timestamp": "2025-12-02T19:35:49.343666+00:00",
        "meta_object_name": "STARLINK-35960",
        "meta_object_id": "2025-265R",
        "meta_epoch": "2025-12-02T12:00:05.998752",
        "meta_mean_motion": 15.75056512,
        "meta_eccentricity": 0.0001462,
        "meta_inclination": 42.9993,
        "meta_ra_of_asc_node": 114.8298,
        "meta_arg_of_pericenter": 268.0005,
        "meta_mean_anomaly": 224.3811,
        "meta_ephemeris_type": 0,
        "meta_classification_type": "U",
        "meta_norad_cat_id": 66531,
        "meta_element_set_no": 999,
        "meta_rev_at_epoch": 334,
        "meta_bstar": -0.00015736,
        "meta_mean_motion_dot": -0.00024598,
        "meta_mean_motion_ddot": 0,
        "tle_line1": "1 66531U 25265R   25336.50006943 -.00024598  00000+0 -15736-3 0  9991",
        "tle_line2": "2 66531  42.9993 114.8298 0001462 268.0005 224.3811 15.75056512  3344"
      },
      "geometry": {
        "type": "Point",
        "coordinates": [
          -109.10455286367592,
          31.950571462345373
        ]
      }
    },
    {
      "type": "Feature",
      "properties": {
        "norad_id": 66532,
        "name": "STARLINK-35914",
        "group": "last-30-days",
        "lat": 30.967284970405533,
        "lon": -107.18635566025252,
        "alt_km": 340.3985865875602,
        "timestamp": "2025-12-02T19:35:49.343676+00:00",
        "meta_object_name": "STARLINK-35914",
        "meta_object_id": "2025-265S",
        "meta_epoch": "2025-12-02T12:00:05.998752",
        "meta_mean_motion": 15.75031856,
        "meta_eccentricity": 0.0001636,
        "meta_inclination": 42.9991,
        "meta_ra_of_asc_node": 114.825,
        "meta_arg_of_pericenter": 266.2056,
        "meta_mean_anomaly": 228.1059,
        "meta_ephemeris_type": 0,
        "meta_classification_type": "U",
        "meta_norad_cat_id": 66532,
        "meta_element_set_no": 999,
        "meta_rev_at_epoch": 334,
        "meta_bstar": 3.3551e-05,
        "meta_mean_motion_dot": 4.677e-05,
        "meta_mean_motion_ddot": 0,
        "tle_line1": "1 66532U 25265S   25336.50006943  .00004677  00000+0  33551-4 0  9992",
        "tle_line2": "2 66532  42.9991 114.8250 0001636 266.2056 228.1059 15.75031856  3340"
      },
      "geometry": {
        "type": "Point",
        "coordinates": [
          -107.18635566025252,
          30.967284970405533
        ]
      }
    },
    {
      "type": "Feature",
      "properties": {
        "norad_id": 66533,
        "name": "STARLINK-35707",
        "group": "last-30-days",
        "lat": 29.951612986627815,
        "lon": -105.29914906393819,
        "alt_km": 340.20216952592,
        "timestamp": "2025-12-02T19:35:49.343688+00:00",
        "meta_object_name": "STARLINK-35707",
        "meta_object_id": "2025-265T",
        "meta_epoch": "2025-12-02T12:00:05.998752",
        "meta_mean_motion": 15.75023983,
        "meta_eccentricity": 0.0001041,
        "meta_inclination": 42.9992,
        "meta_ra_of_asc_node": 114.8203,
        "meta_arg_of_pericenter": 258.9996,
        "meta_mean_anomaly": 237.2351,
        "meta_ephemeris_type": 0,
        "meta_classification_type": "U",
        "meta_norad_cat_id": 66533,
        "meta_element_set_no": 999,
        "meta_rev_at_epoch": 334,
        "meta_bstar": 6.0436e-05,
        "meta_mean_motion_dot": 8.81e-05,
        "meta_mean_motion_ddot": 0,
        "tle_line1": "1 66533U 25265T   25336.50006943  .00008810  00000+0  60436-4 0  9998",
        "tle_line2": "2 66533  42.9992 114.8203 0001041 258.9996 237.2351 15.75023983  3349"
      },
      "geometry": {
        "type": "Point",
        "coordinates": [
          -105.29914906393819,
          29.951612986627815
        ]
      }
    }
  ]
}